[{"OBJECT_NAME":"STARLINK-6234","OBJECT_ID":"2023-099D","EPOCH":"2026-03-09T22:58:47.628480","MEAN_MOTION":15.02536692,"ECCENTRICITY":0.00016138,"INCLINATION":43.0039,"RA_OF_ASC_NODE":247.7982,"ARG_OF_PERICENTER":275.907,"MEAN_ANOMALY":84.1588,"EPHEMERIS_TYPE":0,"CLASSIFICATION_TYPE":"U","NORAD_CAT_ID":57331,"ELEMENT_SET_NO":999,"REV_AT_EPOCH":14615,"BSTAR":2.2960698e-5,"MEAN_MOTION_DOT":1.06e-6,"MEAN_MOTION_DDOT":0},{"OBJECT_NAME":"COSMOS 921","OBJECT_ID":"1977-055A","EPOCH":"2026-03-09T22:48:25.254720","MEAN_MOTION":14.96601907,"ECCENTRICITY":0.00365313,"INCLINATION":75.8341,"RA_OF_ASC_NODE":6.4444,"ARG_OF_PERICENTER":239.9272,"MEAN_ANOMALY":119.8299,"EPHEMERIS_TYPE":0,"CLASSIFICATION_TYPE":"U","NORAD_CAT_ID":10095,"ELEMENT_SET_NO":999,"REV_AT_EPOCH":63955,"BSTAR":0.00011088241,"MEAN_MOTION_DOT":1.258e-5,"MEAN_MOTION_DDOT":0}]
